ONEWEB-0570             
1 55149U 23004K   23275.25001157 -.00833707  00000+0 -36884+0 0  9990
2 55149  86.9550 176.0353 0003404  67.3431 188.8284 14.26489446 39031
ONEWEB-0571             
1 55150U 23004L   23275.25001157 -.00824155  00000+0 -35182+0 0  9999
2 55150  86.9470 176.0950 0004187  57.0907  36.8273 14.28306428 39041
ONEWEB-0572             
1 55151U 23004M   23275.07035984 -.00000670  00000+0 -17588-2 0  9996
2 55151  87.9249 202.4156 0001319  74.2952 285.8325 13.17652944 37220
ONEWEB-0573             
1 55152U 23004N   23275.25001157 -.01031081  00000+0 -45394+0 0  9996
2 55152  86.9459 176.0879 0004689  55.5669  56.1597 14.26907198 39037
ONEWEB-0588             
1 55153U 23004P   23275.25001157 -.00856858  00000+0 -36680+0 0  9991
2 55153  86.9383 176.1228 0007098  57.0202 277.7559 14.27780557 39038
ONEWEB-0598             
1 55154U 23004Q   23274.89516960  .00000194  00000+0  51366-3 0  9998
2 55154  87.8965 217.6210 0001944  53.6398 306.4909 13.11295334 36233
ONEWEB-0599             
1 55155U 23004R   23274.88053658  .00000416  00000+0  10387-2 0  9992
2 55155  87.9252 202.4269 0002127  73.6248 286.5117 13.17649240 37202
ONEWEB-0614             
1 55156U 23004S   23274.89053134  .00000345  00000+0  93645-3 0  9993
2 55156  87.8993 217.6019 0001843  89.9905 270.1434 13.11421330 36177
